[{"OBJECT_NAME":"STARLINK-2685","OBJECT_ID":"2021-040AS","EPOCH":"2026-03-10T00:00:02.999808","MEAN_MOTION":15.22639637,"ECCENTRICITY":0.0001772,"INCLINATION":53.1253,"RA_OF_ASC_NODE":189.7147,"ARG_OF_PERICENTER":86.2021,"MEAN_ANOMALY":349.9142,"EPHEMERIS_TYPE":0,"CLASSIFICATION_TYPE":"U","NORAD_CAT_ID":48468,"ELEMENT_SET_NO":999,"REV_AT_EPOCH":574,"BSTAR":0.06523857,"MEAN_MOTION_DOT":0.01676642,"MEAN_MOTION_DDOT":0},{"OBJECT_NAME":"SHIYAN-19 (SY-19)","OBJECT_ID":"2023-034A","EPOCH":"2026-03-09T22:24:15.893856","MEAN_MOTION":15.52820552,"ECCENTRICITY":0.00056958,"INCLINATION":97.4064,"RA_OF_ASC_NODE":281.9524,"ARG_OF_PERICENTER":8.3622,"MEAN_ANOMALY":351.7724,"EPHEMERIS_TYPE":0,"CLASSIFICATION_TYPE":"U","NORAD_CAT_ID":55861,"ELEMENT_SET_NO":999,"REV_AT_EPOCH":16714,"BSTAR":0.00038152974,"MEAN_MOTION_DOT":0.00023587,"MEAN_MOTION_DDOT":0}]
